{
  "type": "FeatureCollection",
  "metadata": {
    "title": "Data Spasial Kecamatan Gunung Anyar, Kota Surabaya",
    "district": "Gunung Anyar",
    "city": "Surabaya",
    "province": "Jawa Timur",
    "center": [
      -7.3361,
      112.7872
    ],
    "total_features": 10
  },
  "features": [
    {
      "type": "Feature",
      "geometry": {
        "type": "Point",
        "coordinates": [
          112.7872,
          -7.3361
        ]
      },
      "properties": {
        "id": "ga-poi-001",
        "name": "Kantor Kecamatan Gunung Anyar",
        "category": "Pemerintahan",
        "icon": "building-2",
        "address": "Jl. Raya Gunung Anyar No. 2, Surabaya",
        "district": "Gunung Anyar",
        "city": "Surabaya",
        "postcode": "60294",
        "description": "Pusat pelayanan administrasi dan pemerintahan Kecamatan Gunung Anyar"
      }
    },
    {
      "type": "Feature",
      "geometry": {
        "type": "Point",
        "coordinates": [
          112.7885,
          -7.3335
        ]
      },
      "properties": {
        "id": "ga-poi-002",
        "name": "UPN Veteran Jawa Timur",
        "category": "Pendidikan",
        "icon": "graduation-cap",
        "address": "Jl. Raya Rungkut Madya, Gunung Anyar",
        "district": "Gunung Anyar",
        "city": "Surabaya",
        "postcode": "60294",
        "description": "Perguruan Tinggi Negeri terkemuka di wilayah Gunung Anyar Surabaya"
      }
    },
    {
      "type": "Feature",
      "geometry": {
        "type": "Point",
        "coordinates": [
          112.7938,
          -7.3482
        ]
      },
      "properties": {
        "id": "ga-poi-003",
        "name": "Politeknik Pelayaran Surabaya",
        "category": "Pendidikan",
        "icon": "anchor",
        "address": "Jl. Gunung Anyar Boulevard No. 1",
        "district": "Gunung Anyar",
        "city": "Surabaya",
        "postcode": "60294",
        "description": "Akademi dan kampus pendidikan vokasi pelayaran kementerian perhubungan"
      }
    },
    {
      "type": "Feature",
      "geometry": {
        "type": "Point",
        "coordinates": [
          112.821,
          -7.3412
        ]
      },
      "properties": {
        "id": "ga-poi-004",
        "name": "Wisata Ekowisata Mangrove Gunung Anyar",
        "category": "Wisata & Alam",
        "icon": "trees",
        "address": "Jl. Medokan Sawah Timur, Gunung Anyar Tambak",
        "district": "Gunung Anyar",
        "city": "Surabaya",
        "postcode": "60294",
        "description": "Kawasan konservasi mangrove dan tujuan wisata alam pesisir timur Surabaya"
      }
    },
    {
      "type": "Feature",
      "geometry": {
        "type": "Point",
        "coordinates": [
          112.7855,
          -7.3325
        ]
      },
      "properties": {
        "id": "ga-poi-005",
        "name": "Puri Mas Apartement",
        "category": "Hunian",
        "icon": "building",
        "address": "Jl. I Gusti Ngurah Rai, Gunung Anyar",
        "district": "Gunung Anyar",
        "city": "Surabaya",
        "postcode": "60294",
        "description": "Kawasan hunian vertikal dan bisnis Puri Mas"
      }
    },
    {
      "type": "Feature",
      "geometry": {
        "type": "Point",
        "coordinates": [
          112.785,
          -7.3318
        ]
      },
      "properties": {
        "id": "ga-poi-006",
        "name": "A&W Puri Mas",
        "category": "Kuliner",
        "icon": "utensils",
        "address": "Jl. Kolonel I Gusti Ngurah Rai, Gunung Anyar",
        "district": "Gunung Anyar",
        "city": "Surabaya",
        "postcode": "60294",
        "description": "Restoran siap saji di area komersial Puri Mas"
      }
    },
    {
      "type": "Feature",
      "geometry": {
        "type": "Point",
        "coordinates": [
          112.7891,
          -7.3389
        ]
      },
      "properties": {
        "id": "ga-poi-007",
        "name": "Puskesmas Gunung Anyar",
        "category": "Kesehatan",
        "icon": "heart-pulse",
        "address": "Jl. Raya Gunung Anyar Sawah No. 8",
        "district": "Gunung Anyar",
        "city": "Surabaya",
        "postcode": "60294",
        "description": "Pusat pelayanan kesehatan masyarakat Kecamatan Gunung Anyar"
      }
    },
    {
      "type": "Feature",
      "geometry": {
        "type": "Point",
        "coordinates": [
          112.786,
          -7.335
        ]
      },
      "properties": {
        "id": "ga-poi-008",
        "name": "Pasar Gunung Anyar",
        "category": "Perdagangan",
        "icon": "shopping-bag",
        "address": "Jl. Raya Gunung Anyar Pasaran",
        "district": "Gunung Anyar",
        "city": "Surabaya",
        "postcode": "60294",
        "description": "Pasar tradisional dan pusat aktivitas ekonomi warga lokal"
      }
    },
    {
      "type": "Feature",
      "geometry": {
        "type": "Point",
        "coordinates": [
          112.794,
          -7.3395
        ]
      },
      "properties": {
        "id": "ga-poi-009",
        "name": "Taman Riviera Gunung Anyar",
        "category": "Fasilitas Umum",
        "icon": "sparkles",
        "address": "Perumahan Riviera, Gunung Anyar",
        "district": "Gunung Anyar",
        "city": "Surabaya",
        "postcode": "60294",
        "description": "Taman terbuka hijau dan area rekreasi keluarga"
      }
    },
    {
      "type": "Feature",
      "geometry": {
        "type": "Point",
        "coordinates": [
          112.785374,
          -7.331763
        ]
      },
      "properties": {
        "id": "316175513",
        "name": "Lokasi Gunung Anyar",
        "category": "Fasilitas Umum",
        "icon": "map-pin",
        "address": "Jl. I Gusti Ngurah Rai, Gunung Anyar, Surabaya",
        "district": "Gunung Anyar",
        "city": "Surabaya",
        "postcode": "60294",
        "description": "Lokasi Lokasi Gunung Anyar di wilayah Kecamatan Gunung Anyar",
        "amenity": "",
        "building": ""
      }
    }
  ]
}